GAOFEN-5 01             
1 43461U 18043A   26122.36826774  .00000348  00000+0  81824-4 0  9991
2 43461  98.4543  93.0022 0001256 175.7880 184.3330 14.60572833425001
GAOFEN-6                
1 43484U 18048A   26122.53340617  .00001002  00000+0  15059-3 0  9991
2 43484  97.7788 186.8836 0011321 329.5854  30.4699 14.76577951426651
GAOFEN-11 01            
1 43585U 18063A   26122.53657729  .00020490  00000+0  31820-3 0  9991
2 43585  97.1322 189.5839 0005392 128.2801 231.8939 15.53976118433253
ICESAT-2                
1 43613U 18070A   26122.38510166  .00003409  00000+0  12370-3 0  9997
2 43613  92.0025 278.6218 0001617  74.2598 285.8830 15.28287390425461
HYSIS                   
1 43719U 18096A   26122.46627434  .00001363  00000+0  19296-3 0  9999
2 43719  97.9863 189.5669 0000760  94.4217 265.7081 14.78682724400666
KAZSTSAT                
1 43783U 18099AB  26122.32973652  .00000541  00000+0  48259-4 0  9993
2 43783  97.4348 156.3361 0004481 181.2080 178.9134 14.99784611404432
SAUDISAT 5A             
1 43831U 18102A   26122.51422954  .00006193  00000+0  23212-3 0  9997
2 43831  97.3098 184.9835 0008116 300.3836  59.6600 15.27582276408704
SAUDISAT 5B             
1 43833U 18102C   26122.54113319  .00005837  00000+0  21707-3 0  9995
2 43833  97.3201 187.9970 0008845 302.6021  57.4364 15.27863490408821
GAOFEN-10R              
1 44622U 19066A   26122.54298637  .00001283  00000+0  16484-3 0  9996
2 44622  98.0476  75.8015 0004238 293.2080  66.8686 14.82958141355614
CARTOSAT-3              
1 44804U 19081A   26122.51357766  .00006382  00000+0  30479-3 0  9996
2 44804  97.4336 185.1066 0010701 315.0908  44.9460 15.19339344356537
GAOFEN-12 01            
1 44819U 19082A   26122.52485449  .00000431  00000+0  63009-4 0  9999
2 44819  97.8123 130.1091 0001751 124.1538 235.9841 14.80420944347339
CSG-1                   
1 44873U 19092A   26122.48173926  .00000485  00000+0  67488-4 0  9993
2 44873  97.8887 306.7457 0001325  94.7700 265.3665 14.82160981344706
NEMO-HD                 
1 46277U 20061F   26122.50729014  .00011445  00000+0  25569-3 0  9990
2 46277  97.1950 184.9457 0001833 131.5833 228.5573 15.43675250314936
SENTINEL-6A             
1 46984U 20086A   26122.41107213 -.00000053  00000+0  36649-4 0  9999
2 46984  66.0415 230.1284 0007826 270.2295  89.7823 12.80930910254466
GAOFEN-12 02            
1 48079U 21026A   26122.53107473  .00000429  00000+0  63253-4 0  9999
2 48079  97.9925 120.9009 0005590  37.2274 322.9324 14.80259298275003
PLEIADES NEO 3          
1 48268U 21034A   26122.53366852  .00000337  00000+0  49395-4 0  9995
2 48268  97.8937 197.9556 0001409  93.3245 266.8129 14.81673187270891
PLEIADES NEO 4          
1 49070U 21073E   26121.75703545 -.00000086  00000+0 -43400-5 0  9992
2 49070  97.8935 197.1861 0001349  93.2058 266.9310 14.81672062254498
LANDSAT 9               
1 49260U 21088A   26122.18815547  .00000370  00000+0  92126-4 0  9995
2 49260  98.1867 193.0866 0001313 106.0918 254.0425 14.57125376244304
CSG-2                   
1 51444U 22008A   26122.51549330  .00000040  00000+0  11625-4 0  9995
2 51444  97.8878 306.7753 0001344  86.8123 273.3244 14.82155032229827
GAOFEN-12 03            
1 52912U 22069A   26122.55219354  .00000567  00000+0  81700-4 0  9992
2 52912  97.8338  11.5626 0000990  48.9696 311.1601 14.79959320207865
SWOT                    
1 54754U 22173A   26122.40046198  .00000088  00000+0  61412-4 0  9998
2 54754  77.6083  97.1171 0000836 137.4117 222.7099 14.00171398172741
GAOFEN-12 04            
1 57654U 23123A   26122.50705981  .00001104  00000+0  15233-3 0  9998
2 57654  97.9134  41.1821 0001351  93.0969 267.0397 14.80139002145872
PARS 1                  
1 59065U 24039Q   26122.53124454  .00011802  00000+0  25373-3 0  9998
2 59065  97.4806 102.0545 0007365 282.1516  77.8907 15.44794645121599
RESURS-P 4              
1 59371U 24061A   26122.54145049  .00003689  00000+0  12239-3 0  9998
2 59371  97.2730  71.2542 0002189  54.7434 305.4012 15.31865976116771
LEGION 1                
1 59625U 24081A   26122.37462220  .00004816  00000+0  24816-3 0  9993
2 59625  97.5023 200.7167 0010348 170.5846 189.5583 15.16810853110598
LEGION 2                
1 59626U 24081B   26122.47322123  .00004648  00000+0  23797-3 0  9992
2 59626  97.5024 200.9054 0011815 144.7212 215.4806 15.17045364110615
ALOS-4 (DAICHI-4)       
1 60182U 24123A   26122.57395325  .00003148  00000+0  42820-3 0  9995
2 60182  97.9216 220.3931 0001648  99.6304 260.5094 14.79469081 99130
LEGION 3                
1 60452U 24146A   26122.46188933  .00004529  00000+0  24710-3 0  9995
2 60452  45.0013 275.7217 0009162 260.9424  99.0418 15.15705030 95088
LEGION 4                
1 60453U 24146B   26122.39764766  .00004855  00000+0  26480-3 0  9990
2 60453  45.0028   7.9573 0011975  49.3586 310.8332 15.15565917 93926
SENTINEL-2C             
1 60989U 24157A   26122.43829459  .00000121  00000+0  62959-4 0  9996
2 60989  98.5629 197.8686 0001515  98.8742 261.2612 14.30818355 86448
IONOSFERA-M 1           
1 61735U 24199A   26122.41147086  .00000069  00000+0  50589-4 0  9996
2 61735  98.7233 356.0532 0000178  38.9469 321.1722 14.22745636121197
IONOSFERA-M 2           
1 61736U 24199B   26122.44587235  .00000072  00000+0  51852-4 0  9992
2 61736  98.7232 355.9982 0001988  89.9783 270.1623 14.22748514124328
BIOMASS                 
1 63772U 25090A   26122.41952845  .00001087  00000+0  20018-3 0  9991
2 63772  98.0746 310.3975 0001390  87.5500 272.5863 14.67536926 53973
GOSAT-GW (IBUKI GW)     
1 64694U 25141A   26122.50858363 -.00000997  00000+0 -16732-3 0  9991
2 64694  98.0555  60.5730 0001337  82.1634 277.9722 14.67554941 45148
IONOSFERA-M 3           
1 64876U 25155A   26122.49301034  .00000053  00000+0  44055-4 0  9995
2 64876  98.5998  85.5571 0001716  35.5133 324.6158 14.21478351 39914
IONOSFERA-M 4           
1 64877U 25155B   26122.52791856  .00000052  00000+0  43206-4 0  9991
2 64877  98.5997  85.5089 0001213  52.4414 307.6874 14.21480368 39917
MICROCARB               
1 64899U 25156A   26122.47939705  .00000590  00000+0  10110-3 0  9991
2 64899  97.9834 200.4323 0017556  61.2452 299.0516 14.72277190 41249
CO3D 3                  
1 64900U 25156B   26118.55724756  .00004079  00000+0  19143-3 0  9997
2 64900  97.4329 197.9633 0001048  49.5521 310.5805 15.20201512 41996
CO3D 4                  
1 64901U 25156C   26118.49158032  .00002003  00000+0  95596-4 0  9991
2 64901  97.4326 197.8981 0002016 101.4971 258.6491 15.20211498 41988
CO3D 2                  
1 64902U 25156D   26118.58987872  .00004362  00000+0  20458-3 0  9998
2 64902  97.4327 197.8942 0000590  63.5253 296.6042 15.20192497 41995
CO3D 1                  
1 64903U 25156E   26103.64843334  .00003151  00000+0  12932-3 0  9997
2 64903  98.0928 182.3847 0110033   5.8142 354.4339 15.19681462 39726
SENTINEL-6B             
1 66514U 25264A   26122.41141657 -.00000049  00000+0  54043-4 0  9996
2 66514  66.0415 230.2538 0007970 269.5929  90.4173 12.80930839 21307
CSG-3                   
1 67304U 26001A   26122.49439799  .00000359  00000+0  51630-4 0  9991
2 67304  97.8884 306.7576 0001352  84.7495 275.3872 14.82149819 17692
